[{"OBJECT_NAME":"UTMN 2 (RS27S)","OBJECT_ID":"2023-091AP","EPOCH":"2026-03-09T23:09:07.917408","MEAN_MOTION":15.29495965,"ECCENTRICITY":0.00097379,"INCLINATION":97.5194,"RA_OF_ASC_NODE":134.949,"ARG_OF_PERICENTER":76.0788,"MEAN_ANOMALY":284.1534,"EPHEMERIS_TYPE":0,"CLASSIFICATION_TYPE":"U","NORAD_CAT_ID":57203,"ELEMENT_SET_NO":999,"REV_AT_EPOCH":14936,"BSTAR":0.00056135701,"MEAN_MOTION_DOT":0.00016013,"MEAN_MOTION_DDOT":0},{"OBJECT_NAME":"STARLINK-33838","OBJECT_ID":"2025-071H","EPOCH":"2026-03-09T12:11:40.786080","MEAN_MOTION":15.30209781,"ECCENTRICITY":9.208e-5,"INCLINATION":53.1592,"RA_OF_ASC_NODE":140.6553,"ARG_OF_PERICENTER":130.4958,"MEAN_ANOMALY":229.6123,"EPHEMERIS_TYPE":0,"CLASSIFICATION_TYPE":"U","NORAD_CAT_ID":63500,"ELEMENT_SET_NO":999,"REV_AT_EPOCH":5253,"BSTAR":0.00072192791,"MEAN_MOTION_DOT":0.00021089,"MEAN_MOTION_DDOT":0}]
